{
  "type": "Feature",
  "properties": {
    "note": "Area of interest for the basemap extract. One box per cluster of stations, so the archive carries tiles for the places we actually plot and nothing else. Boxes must not overlap or `pmtiles extract` will emit duplicate tiles.",
    "boxes": ["conus", "hawaii", "prvi", "guam", "wake", "kwajalein", "midway", "samoa"]
  },
  "geometry": {
    "type": "MultiPolygon",
    "coordinates": [
      [[[-125.0, 24.0], [-66.5, 24.0], [-66.5, 49.5], [-125.0, 49.5], [-125.0, 24.0]]],
      [[[-160.6, 18.5], [-154.5, 18.5], [-154.5, 22.5], [-160.6, 22.5], [-160.6, 18.5]]],
      [[[-67.6, 17.4], [-64.4, 17.4], [-64.4, 18.7], [-67.6, 18.7], [-67.6, 17.4]]],
      [[[144.4, 13.1], [145.1, 13.1], [145.1, 13.8], [144.4, 13.8], [144.4, 13.1]]],
      [[[166.4, 19.1], [166.8, 19.1], [166.8, 19.4], [166.4, 19.4], [166.4, 19.1]]],
      [[[167.4, 8.5], [167.9, 8.5], [167.9, 9.0], [167.4, 9.0], [167.4, 8.5]]],
      [[[-177.6, 28.0], [-177.2, 28.0], [-177.2, 28.4], [-177.6, 28.4], [-177.6, 28.0]]],
      [[[-171.0, -14.5], [-170.4, -14.5], [-170.4, -14.1], [-171.0, -14.1], [-171.0, -14.5]]]
    ]
  }
}
